// Should be periodically fetched from api
// https://celestrak.org/NORAD/elements/stations.txt


export const tle = `ISS (ZARYA)             
1 25544U 98067A   22274.89635759 -.00065216  00000+0 -11607-2 0  9997
2 25544  51.6407 167.9021 0003213 257.6590 179.5260 15.49594169361737`;